XRISM                   
1 57800U 23137A   23275.09656323  .00006109  00000+0  49773-3 0  9997
2 57800  31.0032 217.6732 0010051 167.0998 192.9895 14.98054275  3760
